CTC1_L_00543008-07
1 10062U 23575NZ  26075.70038194  .00000000  00000+0  00000-0 0  9992
2 10062  96.3000  84.0000 0000000   0.0000 312.0000 15.59190035    16
CTC1_L_00543008-08
1 10063U 25800YZ  26075.70038194  .00000000  00000+0  00000-0 0  9996
2 10063  96.3000  84.0000 0000000   0.0000 357.0000 15.59190035    16
CTC1_L_00543009-01
1 10064U 25526ME  26075.70038194  .00000000  00000+0  00000-0 0  9992
2 10064  96.3000  96.0000 0000000   0.0000  48.0000 15.59190035    17
CTC1_L_00543009-02
1 10065U 26930EE  26075.70038194  .00000000  00000+0  00000-0 0  9993
2 10065  96.3000  96.0000 0000000   0.0000  93.0000 15.59190035    18
CTC1_L_00543009-03
1 10066U 24012SV  26075.70038194  .00000000  00000+0  00000-0 0  9993
2 10066  96.3000  96.0000 0000000   0.0000 138.0000 15.59190035    19
CTC1_L_00543009-04
1 10067U 22101NJ  26075.70038194  .00000000  00000+0  00000-0 0  9991
2 10067  96.3000  96.0000 0000000   0.0000 183.0000 15.59190035    10
CTC1_L_00543009-05
1 10068U 25639GR  26075.70038194  .00000000  00000+0  00000-0 0  9991
2 10068  96.3000  96.0000 0000000   0.0000 228.0000 15.59190035    11
CTC1_L_00543009-06
1 10069U 25443AK  26075.70038194  .00000000  00000+0  00000-0 0  9995
2 10069  96.3000  96.0000 0000000   0.0000 273.0000 15.59190035    12
CTC1_L_00543009-07
1 10070U 24452WL  26075.70038194  .00000000  00000+0  00000-0 0  9996
2 10070  96.3000  96.0000 0000000   0.0000 318.0000 15.59190035    14
CTC1_L_00543009-08
1 10071U 24773UO  26075.70038194  .00000000  00000+0  00000-0 0  9993
2 10071  96.3000  96.0000 0000000   0.0000   3.0000 15.59190035    16
CTC1_L_00543010-01
1 10072U 25900DN  26075.70038194  .00000000  00000+0  00000-0 0  9997
2 10072  96.3000 108.0000 0000000   0.0000  54.0000 15.59190035    17
CTC1_L_00543010-02
1 10073U 25093EG  26075.70038194  .00000000  00000+0  00000-0 0  9991
2 10073  96.3000 108.0000 0000000   0.0000  99.0000 15.59190035    17
CTC1_L_00543010-03
1 10074U 24503TN  26075.70038194  .00000000  00000+0  00000-0 0  9997
2 10074  96.3000 108.0000 0000000   0.0000 144.0000 15.59190035    19
CTC1_L_00543010-04
1 10075U 24885FG  26075.70038194  .00000000  00000+0  00000-0 0  9991
2 10075  96.3000 108.0000 0000000   0.0000 189.0000 15.59190035    19
CTC1_L_00543010-05
1 10076U 25766JQ  26075.70038194  .00000000  00000+0  00000-0 0  9991
2 10076  96.3000 108.0000 0000000   0.0000 234.0000 15.59190035    11
CTC1_L_00543010-06
1 10077U 24188BV  26075.70038194  .00000000  00000+0  00000-0 0  9999
2 10077  96.3000 108.0000 0000000   0.0000 279.0000 15.59190035    11
CTC1_L_00543010-07
1 10078U 22582XZ  26075.70038194  .00000000  00000+0  00000-0 0  9996
2 10078  96.3000 108.0000 0000000   0.0000 324.0000 15.59190035    13
CTC1_L_00543010-08
1 10079U 24663MY  26075.70038194  .00000000  00000+0  00000-0 0  9999
2 10079  96.3000 108.0000 0000000   0.0000   9.0000 15.59190035    14
CTC1_L_00543011-01
1 10080U 26885CO  26075.70038194  .00000000  00000+0  00000-0 0  9999
2 10080  96.3000 120.0000 0000000   0.0000  60.0000 15.59190035    17
CTC1_L_00543011-02
1 10081U 22368OI  26075.70038194  .00000000  00000+0  00000-0 0  9992
2 10081  96.3000 120.0000 0000000   0.0000 105.0000 15.59190035    18
CTC1_L_00543011-03
1 10082U 26501HL  26075.70038194  .00000000  00000+0  00000-0 0  9996
2 10082  96.3000 120.0000 0000000   0.0000 150.0000 15.59190035    19
CTC1_L_00543011-04
1 10083U 26641CK  26075.70038194  .00000000  00000+0  00000-0 0  9992
2 10083  96.3000 120.0000 0000000   0.0000 195.0000 15.59190035    19
CTC1_L_00543011-05
1 10084U 22216FW  26075.70038194  .00000000  00000+0  00000-0 0  9997
2 10084  96.3000 120.0000 0000000   0.0000 240.0000 15.59190035    11
CTC1_L_00543011-06
1 10085U 23288LQ  26075.70038194  .00000000  00000+0  00000-0 0  9998
2 10085  96.3000 120.0000 0000000   0.0000 285.0000 15.59190035    11
CTC1_L_00543011-07
1 10086U 26712AU  26075.70038194  .00000000  00000+0  00000-0 0  9994
2 10086  96.3000 120.0000 0000000   0.0000 330.0000 15.59190035    13
CTC1_L_00543011-08
1 10087U 23990BB  26075.70038194  .00000000  00000+0  00000-0 0  9990
2 10087  96.3000 120.0000 0000000   0.0000  15.0000 15.59190035    14
CTC1_L_00543012-01
1 10088U 24305VV  26075.70038194  .00000000  00000+0  00000-0 0  9992
2 10088  96.3000 132.0000 0000000   0.0000  66.0000 15.59190035    14
CTC1_L_00543012-02
1 10089U 24270E   26075.70038194  .00000000  00000+0  00000-0 0  9994
2 10089  96.3000 132.0000 0000000   0.0000 111.0000 15.59190035    16
CTC1_L_00543012-03
1 10090U 25589LH  26075.70038194  .00000000  00000+0  00000-0 0  9990
2 10090  96.3000 132.0000 0000000   0.0000 156.0000 15.59190035    17
CTC1_L_00543012-04
1 10091U 26545KE  26075.70038194  .00000000  00000+0  00000-0 0  9994
2 10091  96.3000 132.0000 0000000   0.0000 201.0000 15.59190035    19
CTC1_L_00543012-05
1 10092U 25980MU  26075.70038194  .00000000  00000+0  00000-0 0  9997
2 10092  96.3000 132.0000 0000000   0.0000 246.0000 15.59190035    19
CTC1_L_00543012-06
1 10093U 22105VH  26075.70038194  .00000000  00000+0  00000-0 0  9994
2 10093  96.3000 132.0000 0000000   0.0000 291.0000 15.59190035    10
CTC1_L_00543012-07
1 10094U 22806TB  26075.70038194  .00000000  00000+0  00000-0 0  9993
2 10094  96.3000 132.0000 0000000   0.0000 336.0000 15.59190035    11
CTC1_L_00543012-08
1 10095U 26093OG  26075.70038194  .00000000  00000+0  00000-0 0  9996
2 10095  96.3000 132.0000 0000000   0.0000  21.0000 15.59190035    13
CTC1_L_00543013-01
1 10096U 23342YT  26075.70038194  .00000000  00000+0  00000-0 0  9991
2 10096  96.3000 144.0000 0000000   0.0000  72.0000 15.59190035    13
CTC1_L_00543013-02
1 10097U 26791PM  26075.70038194  .00000000  00000+0  00000-0 0  9993
2 10097  96.3000 144.0000 0000000   0.0000 117.0000 15.59190035    14
CTC1_L_00543013-03
1 10098U 22990NK  26075.70038194  .00000000  00000+0  00000-0 0  9991
2 10098  96.3000 144.0000 0000000   0.0000 162.0000 15.59190035    15
CTC1_L_00543013-04
1 10099U 23433WL  26075.70038194  .00000000  00000+0  00000-0 0  9995
2 10099  96.3000 144.0000 0000000   0.0000 207.0000 15.59190035    16
CTC1_L_00543013-05
1 10100U 25552UP  26075.70038194  .00000000  00000+0  00000-0 0  9992
2 10100  96.3000 144.0000 0000000   0.0000 252.0000 15.59190035    19
CTC1_L_00543013-06
1 10101U 25614UR  26075.70038194  .00000000  00000+0  00000-0 0  9992
2 10101  96.3000 144.0000 0000000   0.0000 297.0000 15.59190035    19
CTC1_L_00543013-07
1 10102U 24786JQ  26075.70038194  .00000000  00000+0  00000-0 0  9992
2 10102  96.3000 144.0000 0000000   0.0000 342.0000 15.59190035    11
CTC1_L_00543013-08
1 10103U 22749NV  26075.70038194  .00000000  00000+0  00000-0 0  9990
2 10103  96.3000 144.0000 0000000   0.0000  27.0000 15.59190035    12
CTC1_L_00543014-01
1 10104U 25736SW  26075.70038194  .00000000  00000+0  00000-0 0  9990
2 10104  96.3000 156.0000 0000000   0.0000  78.0000 15.59190035    12
CTC1_L_00543014-02
1 10105U 24430QR  26075.70038194  .00000000  00000+0  00000-0 0  9991
2 10105  96.3000 156.0000 0000000   0.0000 123.0000 15.59190035    14
CTC1_L_00543014-03
1 10106U 23710YO  26075.70038194  .00000000  00000+0  00000-0 0  9992
2 10106  96.3000 156.0000 0000000   0.0000 168.0000 15.59190035    14
CTC1_L_00543014-04
1 10107U 23935KX  26075.70038194  .00000000  00000+0  00000-0 0  9992
2 10107  96.3000 156.0000 0000000   0.0000 213.0000 15.59190035    16
CTC1_L_00543014-05
1 10108U 22510LV  26075.70038194  .00000000  00000+0  00000-0 0  9991
2 10108  96.3000 156.0000 0000000   0.0000 258.0000 15.59190035    16
CTC1_L_00543014-06
1 10109U 22381GR  26075.70038194  .00000000  00000+0  00000-0 0  9998
2 10109  96.3000 156.0000 0000000   0.0000 303.0000 15.59190035    18
CTC1_L_00543014-07
1 10110U 25681RU  26075.70038194  .00000000  00000+0  00000-0 0  9996
2 10110  96.3000 156.0000 0000000   0.0000 348.0000 15.59190035    19
CTC1_L_00543014-08
1 10111U 23475QL  26075.70038194  .00000000  00000+0  00000-0 0  9996
2 10111  96.3000 156.0000 0000000   0.0000  33.0000 15.59190035    11
CTC1_L_00543015-01
1 10112U 26010YG  26075.70038194  .00000000  00000+0  00000-0 0  9995
2 10112  96.3000 168.0000 0000000   0.0000  84.0000 15.59190035    11
CTC1_L_00543015-02
1 10113U 23844AR  26075.70038194  .00000000  00000+0  00000-0 0  9998
2 10113  96.3000 168.0000 0000000   0.0000 129.0000 15.59190035    12
CTC1_L_00543015-03
1 10114U 24864LQ  26075.70038194  .00000000  00000+0  00000-0 0  9992
2 10114  96.3000 168.0000 0000000   0.0000 174.0000 15.59190035    13
CTC1_L_00543015-04
1 10115U 26997ZM  26075.70038194  .00000000  00000+0  00000-0 0  9992
2 10115  96.3000 168.0000 0000000   0.0000 219.0000 15.59190035    14
CTC1_L_00543015-05
1 10116U 25340FT  26075.70038194  .00000000  00000+0  00000-0 0  9994
2 10116  96.3000 168.0000 0000000   0.0000 264.0000 15.59190035    15
CTC1_L_00543015-06
1 10117U 22365AU  26075.70038194  .00000000  00000+0  00000-0 0  9999
2 10117  96.3000 168.0000 0000000   0.0000 309.0000 15.59190035    16
CTC1_L_00543015-07
1 10118U 22002QS  26075.70038194  .00000000  00000+0  00000-0 0  9998
2 10118  96.3000 168.0000 0000000   0.0000 354.0000 15.59190035    17
CTC1_L_00543015-08
1 10119U 24965EO  26075.70038194  .00000000  00000+0  00000-0 0  9999
2 10119  96.3000 168.0000 0000000   0.0000  39.0000 15.59190035    18
CTC1_L_00543016-01
1 10120U 26986YZ  26075.70038194  .00000000  00000+0  00000-0 0  9996
2 10120  96.3000 180.0000 0000000   0.0000  90.0000 15.59190035    11
CTC1_L_00543016-02
1 10121U 23553QK  26075.70038194  .00000000  00000+0  00000-0 0  9994
2 10121  96.3000 180.0000 0000000   0.0000 135.0000 15.59190035    12
CTC1_L_00543016-03
1 10122U 26284AT  26075.70038194  .00000000  00000+0  00000-0 0  9999
2 10122  96.3000 180.0000 0000000   0.0000 180.0000 15.59190035    13
CTC1_L_00543016-04
1 10123U 23368SL  26075.70038194  .00000000  00000+0  00000-0 0  9990
2 10123  96.3000 180.0000 0000000   0.0000 225.0000 15.59190035    14
